{
  "type": "FeatureCollection",
  "features": [
    {
      "type": "Feature",
      "properties": {
        "norad_id": 66660,
        "name": "K-HERO",
        "group": "last-30-days",
        "lat": 27.540367216315275,
        "lon": -86.74114780204341,
        "alt_km": 591.8364765984943,
        "timestamp": "2025-12-16T03:53:25.816646+00:00",
        "meta_object_name": "K-HERO",
        "meta_object_id": "2025-274L",
        "meta_epoch": "2025-12-15T08:27:50.361408",
        "meta_mean_motion": 14.92976466,
        "meta_eccentricity": 0.00124666,
        "meta_inclination": 97.7393,
        "meta_ra_of_asc_node": 276.5294,
        "meta_arg_of_pericenter": 271.0276,
        "meta_mean_anomaly": 88.9515,
        "meta_ephemeris_type": 0,
        "meta_classification_type": "U",
        "meta_norad_cat_id": 66660,
        "meta_element_set_no": 999,
        "meta_rev_at_epoch": 279,
        "meta_bstar": 0.00027764222,
        "meta_mean_motion_dot": 2.831e-05,
        "meta_mean_motion_ddot": 0,
        "tle_line1": "1 66660U 25274L   25349.35266622  .00002831  00000+0  27764-3 0  9991",
        "tle_line2": "2 66660  97.7393 276.5294 0012466 271.0276  88.9515 14.92976466  2791"
      },
      "geometry": {
        "type": "Point",
        "coordinates": [
          -86.74114780204341,
          27.540367216315275
        ]
      }
    },
    {
      "type": "Feature",
      "properties": {
        "norad_id": 66661,
        "name": "SNUGLITE-III",
        "group": "last-30-days",
        "lat": 37.69646287910455,
        "lon": -88.70373395705663,
        "alt_km": 591.193499535012,
        "timestamp": "2025-12-16T03:53:25.816657+00:00",
        "meta_object_name": "SNUGLITE-III",
        "meta_object_id": "2025-274M",
        "meta_epoch": "2025-12-15T08:25:11.202240",
        "meta_mean_motion": 14.93112348,
        "meta_eccentricity": 0.00131182,
        "meta_inclination": 97.7393,
        "meta_ra_of_asc_node": 276.5309,
        "meta_arg_of_pericenter": 272.4214,
        "meta_mean_anomaly": 87.5504,
        "meta_ephemeris_type": 0,
        "meta_classification_type": "U",
        "meta_norad_cat_id": 66661,
        "meta_element_set_no": 999,
        "meta_rev_at_epoch": 279,
        "meta_bstar": 0.00025086912,
        "meta_mean_motion_dot": 2.562e-05,
        "meta_mean_motion_ddot": 0,
        "tle_line1": "1 66661U 25274M   25349.35082410  .00002562  00000+0  25087-3 0  9990",
        "tle_line2": "2 66661  97.7393 276.5309 0013118 272.4214  87.5504 14.93112348  2796"
      },
      "geometry": {
        "type": "Point",
        "coordinates": [
          -88.70373395705663,
          37.69646287910455
        ]
      }
    },
    {
      "type": "Feature",
      "properties": {
        "norad_id": 66662,
        "name": "2025-274N",
        "group": "last-30-days",
        "lat": 41.66096102131982,
        "lon": -89.61897672581506,
        "alt_km": 591.166195575529,
        "timestamp": "2025-12-16T03:53:25.816670+00:00",
        "meta_object_name": "2025-274N",
        "meta_object_id": "2025-274N",
        "meta_epoch": "2025-12-15T08:24:08.935488",
        "meta_mean_motion": 14.93166701,
        "meta_eccentricity": 0.00135509,
        "meta_inclination": 97.7393,
        "meta_ra_of_asc_node": 276.5321,
        "meta_arg_of_pericenter": 271.8982,
        "meta_mean_anomaly": 88.0685,
        "meta_ephemeris_type": 0,
        "meta_classification_type": "U",
        "meta_norad_cat_id": 66662,
        "meta_element_set_no": 999,
        "meta_rev_at_epoch": 279,
        "meta_bstar": 0.00026226192,
        "meta_mean_motion_dot": 2.685e-05,
        "meta_mean_motion_ddot": 0,
        "tle_line1": "1 66662U 25274N   25349.35010342  .00002685  00000+0  26226-3 0  9998",
        "tle_line2": "2 66662  97.7393 276.5321 0013550 271.8982  88.0685 14.93166701  2794"
      },
      "geometry": {
        "type": "Point",
        "coordinates": [
          -89.61897672581506,
          41.66096102131982
        ]
      }
    },
    {
      "type": "Feature",
      "properties": {
        "norad_id": 66663,
        "name": "KSLV-II R/B",
        "group": "last-30-days",
        "lat": -23.792120587851265,
        "lon": -79.0911366675121,
        "alt_km": 548.0583877594936,
        "timestamp": "2025-12-16T03:53:25.816682+00:00",
        "meta_object_name": "KSLV-II R/B",
        "meta_object_id": "2025-274P",
        "meta_epoch": "2025-12-15T07:08:48.551424",
        "meta_mean_motion": 14.97331425,
        "meta_eccentricity": 0.00530659,
        "meta_inclination": 97.741,
        "meta_ra_of_asc_node": 276.6145,
        "meta_arg_of_pericenter": 310.9589,
        "meta_mean_anomaly": 48.7046,
        "meta_ephemeris_type": 0,
        "meta_classification_type": "U",
        "meta_norad_cat_id": 66663,
        "meta_element_set_no": 999,
        "meta_rev_at_epoch": 279,
        "meta_bstar": 0.00035715479,
        "meta_mean_motion_dot": 4.203e-05,
        "meta_mean_motion_ddot": 0,
        "tle_line1": "1 66663U 25274P   25349.29778416  .00004203  00000+0  35715-3 0  9996",
        "tle_line2": "2 66663  97.7410 276.6145 0053065 310.9589  48.7046 14.97331425  2798"
      },
      "geometry": {
        "type": "Point",
        "coordinates": [
          -79.0911366675121,
          -23.792120587851265
        ]
      }
    },
    {
      "type": "Feature",
      "properties": {
        "norad_id": 66664,
        "name": "SOYUZ-MS 28",
        "group": "last-30-days",
        "lat": 38.88306998905743,
        "lon": 165.24027234334034,
        "alt_km": 414.6337547107696,
        "timestamp": "2025-12-16T03:53:25.816695+00:00",
        "meta_object_name": "SOYUZ-MS 28",
        "meta_object_id": "2025-275A",
        "meta_epoch": "2025-12-15T05:59:35.690496",
        "meta_mean_motion": 15.49601155,
        "meta_eccentricity": 0.00031934,
        "meta_inclination": 51.6306,
        "meta_ra_of_asc_node": 130.0501,
        "meta_arg_of_pericenter": 251.9008,
        "meta_mean_anomaly": 108.1633,
        "meta_ephemeris_type": 0,
        "meta_classification_type": "U",
        "meta_norad_cat_id": 66664,
        "meta_element_set_no": 999,
        "meta_rev_at_epoch": 128,
        "meta_bstar": 0.00013467464,
        "meta_mean_motion_dot": 7.132e-05,
        "meta_mean_motion_ddot": 0,
        "tle_line1": "1 66664U 25275A   25349.24971864  .00007132  00000+0  13467-3 0  9999",
        "tle_line2": "2 66664  51.6306 130.0501 0003193 251.9008 108.1633 15.49601155  1282"
      },
      "geometry": {
        "type": "Point",
        "coordinates": [
          165.24027234334034,
          38.88306998905743
        ]
      }
    },
    {
      "type": "Feature",
      "properties": {
        "norad_id": 66791,
        "name": "STARLINK-35867",
        "group": "last-30-days",
        "lat": 41.06533445508674,
        "lon": -18.101213728050652,
        "alt_km": 330.96387736257657,
        "timestamp": "2025-12-16T03:53:25.816706+00:00",
        "meta_object_name": "STARLINK-35867",
        "meta_object_id": "2025-278A",
        "meta_epoch": "2025-12-15T08:00:01.999872",
        "meta_mean_motion": 15.80271932,
        "meta_eccentricity": 0.0001803,
        "meta_inclination": 42.9975,
        "meta_ra_of_asc_node": 236.2046,
        "meta_arg_of_pericenter": 281.7618,
        "meta_mean_anomaly": 146.567,
        "meta_ephemeris_type": 0,
        "meta_classification_type": "U",
        "meta_norad_cat_id": 66791,
        "meta_element_set_no": 999,
        "meta_rev_at_epoch": 337,
        "meta_bstar": -0.0072707658,
        "meta_mean_motion_dot": -0.01248579,
        "meta_mean_motion_ddot": 0,
        "tle_line1": "1 66791U 25278A   25349.33335648 -.01248579  00000+0 -72708-2 0  9994",
        "tle_line2": "2 66791  42.9975 236.2046 0001803 281.7618 146.5670 15.80271932  3375"
      },
      "geometry": {
        "type": "Point",
        "coordinates": [
          -18.101213728050652,
          41.06533445508674
        ]
      }
    },
    {
      "type": "Feature",
      "properties": {
        "norad_id": 66792,
        "name": "STARLINK-35990",
        "group": "last-30-days",
        "lat": 40.585865538459615,
        "lon": -15.703837670009692,
        "alt_km": 331.07232057739384,
        "timestamp": "2025-12-16T03:53:25.816717+00:00",
        "meta_object_name": "STARLINK-35990",
        "meta_object_id": "2025-278B",
        "meta_epoch": "2025-12-15T08:00:01.999872",
        "meta_mean_motion": 15.80291225,
        "meta_eccentricity": 0.00018323,
        "meta_inclination": 42.9971,
        "meta_ra_of_asc_node": 236.2001,
        "meta_arg_of_pericenter": 276.4828,
        "meta_mean_anomaly": 153.7044,
        "meta_ephemeris_type": 0,
        "meta_classification_type": "U",
        "meta_norad_cat_id": 66792,
        "meta_element_set_no": 999,
        "meta_rev_at_epoch": 337,
        "meta_bstar": -0.007342736,
        "meta_mean_motion_dot": -0.01260497,
        "meta_mean_motion_ddot": 0,
        "tle_line1": "1 66792U 25278B   25349.33335648 -.01260497  00000+0 -73427-2 0  9997",
        "tle_line2": "2 66792  42.9971 236.2001 0001832 276.4828 153.7044 15.80291225  3371"
      },
      "geometry": {
        "type": "Point",
        "coordinates": [
          -15.703837670009692,
          40.585865538459615
        ]
      }
    }
  ]
}